[
  {
    "date": "2026-03-10",
    "sats": {
      "goes": ["GOES-16", "GOES-17", "GOES-18", "GOES-19"],
      "nauka": {
        "name": "ISS (Nauka)",
        "tle": [
          "1 49044U 21066A   26068.44878279  .00007802  00000+0  15192-3 0  9994",
          "2 49044  51.6321  73.5472 0008027 173.5451 186.5642 15.48542052556062"
        ]
      },
      "zarya": {
        "name": "ISS (Zarya)",
        "tle": [
          "1 25544U 98067A   26069.48132270  .00008982  00000+0  17349-3 0  9993",
          "2 25544  51.6323  68.4424 0007951 177.3714 182.7318 15.48562436556451"
        ]
      },
      "hubble": {
        "name": "HUBBLE",
        "tle": [
          "1 20580U 90037B   26070.24775401  .00008856  00000-0  29286-3 0  9996",
          "2 20580  28.4722  29.3700 0001841 140.8013 219.2716 15.29511346773556"
        ]
      },
      "crew12": {
        "name": "CREW DRAGON 12",
        "tle": [
          "1 67796U 26031A   26070.83651154  .00008338  00000+0  16153-3 0  9995",
          "2 67796  51.6324  61.7417 0007972 182.2925 177.8028 15.48586968556568"
        ]
      },
      "soyuz": {
        "name": "SOYUZ-MS 28",
        "tle": [
          "1 66664U 25275A   26070.83651154  .00008338  00000+0  16153-3 0  9997",
          "2 66664  51.6324  61.7417 0007972 182.2925 177.8028 15.48586968554525"
        ]
      }
    }
  }
]
